[Satellite]
VERSION=1.1
NAME=MOLNIYA 1-69
NICKNAME=MOLNIYA 1-69
TLE1=1 17078U 86089A   19317.42137699  .00000084  00000-0 -33673-1 0  9992
TLE2=2 17078  64.1905 278.8288 6800457 267.7275 184.2963  2.00640433241832
STATUS=0
